IRIDIUM 171             
1 43929U 19002H   25303.90197701  .00000374  00000+0  12659-3 0  9995
2 43929  86.3938  89.7096 0001786  95.9528 264.1871 14.34218989356096
IRIDIUM 170             
1 43930U 19002J   25303.91009179  .00001655  00000+0  25849-3 0  9997
2 43930  86.6052  89.4292 0002256  90.0151 270.1325 14.72255201365523
IRIDIUM 167             
1 43931U 19002K   25303.89563448  .00000160  00000+0  49979-4 0  9990
2 43931  86.3930  89.4515 0001645  89.2023 270.9362 14.34218178356094
IRIDIUM 181             
1 56726U 23068S   25303.14095686  .00000461  00000+0  13096-3 0  9999
2 56726  86.4523 152.9343 0001927 101.8073 258.3344 14.43320098129254
IRIDIUM 177             
1 56727U 23068T   25303.61232213  .00001753  00000+0  22715-3 0  9994
2 56727  86.1941  77.8100 0002228  86.8235 273.3241 14.80233522132409
IRIDIUM 174             
1 56728U 23068U   25303.89772530  .00001679  00000+0  26238-3 0  9997
2 56728  86.6056  89.5579 0002542  82.1394 278.0112 14.72244423132284
IRIDIUM 178             
1 56729U 23068V   25303.93942672  .00000344  00000+0  41822-4 0  9994
2 56729  86.6504 121.1859 0001971  87.0281 273.1166 14.80227556132452
IRIDIUM 179             
1 56730U 23068W   25303.93405135  .00000902  00000+0  11528-3 0  9993
2 56730  86.6759 129.4803 0001594  88.4203 271.7201 14.80238455132450
